[{"OBJECT_NAME":"STARLINK-1911","OBJECT_ID":"2020-074L","EPOCH":"2026-03-10T00:00:02.999808","MEAN_MOTION":15.7196626,"ECCENTRICITY":0.00010753,"INCLINATION":53.0465,"RA_OF_ASC_NODE":276.9224,"ARG_OF_PERICENTER":50.1756,"MEAN_ANOMALY":209.8955,"EPHEMERIS_TYPE":0,"CLASSIFICATION_TYPE":"U","NORAD_CAT_ID":46749,"ELEMENT_SET_NO":999,"REV_AT_EPOCH":580,"BSTAR":0.00055147557,"MEAN_MOTION_DOT":0.00073486,"MEAN_MOTION_DDOT":0},{"OBJECT_NAME":"STARLINK-11653 [DTC]","OBJECT_ID":"2025-053C","EPOCH":"2026-03-09T22:00:01.999584","MEAN_MOTION":15.69255384,"ECCENTRICITY":0.00010842,"INCLINATION":42.9998,"RA_OF_ASC_NODE":111.1141,"ARG_OF_PERICENTER":272.4677,"MEAN_ANOMALY":40.8697,"EPHEMERIS_TYPE":0,"CLASSIFICATION_TYPE":"U","NORAD_CAT_ID":63267,"ELEMENT_SET_NO":999,"REV_AT_EPOCH":592,"BSTAR":0.0052076686,"MEAN_MOTION_DOT":0.00679293,"MEAN_MOTION_DDOT":0}]
